{
  "type": "FeatureCollection",
  "features": [
    {
      "type": "Feature",
      "properties": {
        "norad_id": 30849,
        "name": "FENGYUN 1C DEB",
        "group": "fengyun-1c-debris",
        "lat": -29.097968125915166,
        "lon": -129.20602521394133,
        "alt_km": 857.354714169317,
        "timestamp": "2025-12-21T16:47:55.017364+00:00",
        "meta_object_name": "FENGYUN 1C DEB",
        "meta_object_id": "1999-025AWK",
        "meta_epoch": "2025-12-19T15:27:12.731040",
        "meta_mean_motion": 14.18892004,
        "meta_eccentricity": 0.0047911,
        "meta_inclination": 99.0479,
        "meta_ra_of_asc_node": 53.7843,
        "meta_arg_of_pericenter": 346.0232,
        "meta_mean_anomaly": 167.3066,
        "meta_ephemeris_type": 0,
        "meta_classification_type": "U",
        "meta_norad_cat_id": 30849,
        "meta_element_set_no": 999,
        "meta_rev_at_epoch": 96470,
        "meta_bstar": 0.00099381,
        "meta_mean_motion_dot": 2.047e-05,
        "meta_mean_motion_ddot": 0,
        "tle_line1": "1 30849U 99025AWK 25353.64389735  .00002047  00000+0  99381-3 0  9997",
        "tle_line2": "2 30849  99.0479  53.7843 0047911 346.0232 167.3066 14.18892004964708"
      },
      "geometry": {
        "type": "Point",
        "coordinates": [
          -129.20602521394133,
          -29.097968125915166
        ]
      }
    },
    {
      "type": "Feature",
      "properties": {
        "norad_id": 30850,
        "name": "FENGYUN 1C DEB",
        "group": "fengyun-1c-debris",
        "lat": 55.2607913662096,
        "lon": -151.59900571521473,
        "alt_km": 865.5407113903748,
        "timestamp": "2025-12-21T16:47:55.017375+00:00",
        "meta_object_name": "FENGYUN 1C DEB",
        "meta_object_id": "1999-025AWL",
        "meta_epoch": "2025-12-20T13:41:26.416032",
        "meta_mean_motion": 14.16338705,
        "meta_eccentricity": 0.0109159,
        "meta_inclination": 98.3943,
        "meta_ra_of_asc_node": 219.6301,
        "meta_arg_of_pericenter": 174.889,
        "meta_mean_anomaly": 246.6179,
        "meta_ephemeris_type": 0,
        "meta_classification_type": "U",
        "meta_norad_cat_id": 30850,
        "meta_element_set_no": 999,
        "meta_rev_at_epoch": 95909,
        "meta_bstar": 0.0013597,
        "meta_mean_motion_dot": 2.821e-05,
        "meta_mean_motion_ddot": 0,
        "tle_line1": "1 30850U 99025AWL 25354.57044463  .00002821  00000+0  13597-2 0  9992",
        "tle_line2": "2 30850  98.3943 219.6301 0109159 174.8890 246.6179 14.16338705959093"
      },
      "geometry": {
        "type": "Point",
        "coordinates": [
          -151.59900571521473,
          55.2607913662096
        ]
      }
    },
    {
      "type": "Feature",
      "properties": {
        "norad_id": 30852,
        "name": "FENGYUN 1C DEB",
        "group": "fengyun-1c-debris",
        "lat": -27.957947613232925,
        "lon": -171.4866981756676,
        "alt_km": 823.4366663262444,
        "timestamp": "2025-12-21T16:47:55.017389+00:00",
        "meta_object_name": "FENGYUN 1C DEB",
        "meta_object_id": "1999-025AWN",
        "meta_epoch": "2025-12-21T00:29:18.003264",
        "meta_mean_motion": 14.10297707,
        "meta_eccentricity": 0.00561743,
        "meta_inclination": 98.7331,
        "meta_ra_of_asc_node": 12.533,
        "meta_arg_of_pericenter": 210.8451,
        "meta_mean_anomaly": 148.9416,
        "meta_ephemeris_type": 0,
        "meta_classification_type": "U",
        "meta_norad_cat_id": 30852,
        "meta_element_set_no": 999,
        "meta_rev_at_epoch": 96499,
        "meta_bstar": 0.00030928284,
        "meta_mean_motion_dot": 5.14e-06,
        "meta_mean_motion_ddot": 0,
        "tle_line1": "1 30852U 99025AWN 25355.02034726  .00000514  00000+0  30928-3 0  9991",
        "tle_line2": "2 30852  98.7331  12.5330 0056174 210.8451 148.9416 14.10297707964997"
      },
      "geometry": {
        "type": "Point",
        "coordinates": [
          -171.4866981756676,
          -27.957947613232925
        ]
      }
    },
    {
      "type": "Feature",
      "properties": {
        "norad_id": 30856,
        "name": "FENGYUN 1C DEB",
        "group": "fengyun-1c-debris",
        "lat": 76.80866970626408,
        "lon": 142.24416840589095,
        "alt_km": 771.2409404256923,
        "timestamp": "2025-12-21T16:47:55.017399+00:00",
        "meta_object_name": "FENGYUN 1C DEB",
        "meta_object_id": "1999-025AWS",
        "meta_epoch": "2025-12-21T11:34:52.904064",
        "meta_mean_motion": 14.46448005,
        "meta_eccentricity": 0.0087469,
        "meta_inclination": 98.1981,
        "meta_ra_of_asc_node": 179.99,
        "meta_arg_of_pericenter": 212.175,
        "meta_mean_anomaly": 176.916,
        "meta_ephemeris_type": 0,
        "meta_classification_type": "U",
        "meta_norad_cat_id": 30856,
        "meta_element_set_no": 999,
        "meta_rev_at_epoch": 96652,
        "meta_bstar": 0.0037627,
        "meta_mean_motion_dot": 0.00014168,
        "meta_mean_motion_ddot": 0,
        "tle_line1": "1 30856U 99025AWS 25355.48255676  .00014168  00000+0  37627-2 0  9996",
        "tle_line2": "2 30856  98.1981 179.9900 0087469 212.1750 176.9160 14.46448005966521"
      },
      "geometry": {
        "type": "Point",
        "coordinates": [
          142.24416840589095,
          76.80866970626408
        ]
      }
    },
    {
      "type": "Feature",
      "properties": {
        "norad_id": 30857,
        "name": "FENGYUN 1C DEB",
        "group": "fengyun-1c-debris",
        "lat": 80.98396783458561,
        "lon": -98.78747564749476,
        "alt_km": 741.0040258265171,
        "timestamp": "2025-12-21T16:47:55.017409+00:00",
        "meta_object_name": "FENGYUN 1C DEB",
        "meta_object_id": "1999-025AWT",
        "meta_epoch": "2025-12-10T22:20:28.597056",
        "meta_mean_motion": 14.51403304,
        "meta_eccentricity": 0.0041899,
        "meta_inclination": 98.9745,
        "meta_ra_of_asc_node": 334.5727,
        "meta_arg_of_pericenter": 300.5616,
        "meta_mean_anomaly": 59.1445,
        "meta_ephemeris_type": 0,
        "meta_classification_type": "U",
        "meta_norad_cat_id": 30857,
        "meta_element_set_no": 999,
        "meta_rev_at_epoch": 96697,
        "meta_bstar": 0.0076916,
        "meta_mean_motion_dot": 0.0003112,
        "meta_mean_motion_ddot": 0,
        "tle_line1": "1 30857U 99025AWT 25344.93088654  .00031120  00000+0  76916-2 0  9996",
        "tle_line2": "2 30857  98.9745 334.5727 0041899 300.5616  59.1445 14.51403304966970"
      },
      "geometry": {
        "type": "Point",
        "coordinates": [
          -98.78747564749476,
          80.98396783458561
        ]
      }
    },
    {
      "type": "Feature",
      "properties": {
        "norad_id": 30858,
        "name": "FENGYUN 1C DEB",
        "group": "fengyun-1c-debris",
        "lat": 72.0250400821283,
        "lon": 24.734493535388513,
        "alt_km": 804.136749350796,
        "timestamp": "2025-12-21T16:47:55.017419+00:00",
        "meta_object_name": "FENGYUN 1C DEB",
        "meta_object_id": "1999-025AWU",
        "meta_epoch": "2025-12-20T22:39:11.340000",
        "meta_mean_motion": 14.17792665,
        "meta_eccentricity": 0.0030638,
        "meta_inclination": 98.798,
        "meta_ra_of_asc_node": 52.4984,
        "meta_arg_of_pericenter": 87.0715,
        "meta_mean_anomaly": 90.4746,
        "meta_ephemeris_type": 0,
        "meta_classification_type": "U",
        "meta_norad_cat_id": 30858,
        "meta_element_set_no": 999,
        "meta_rev_at_epoch": 97096,
        "meta_bstar": 0.00029074,
        "meta_mean_motion_dot": 5.52e-06,
        "meta_mean_motion_ddot": 0,
        "tle_line1": "1 30858U 99025AWU 25354.94388125  .00000552  00000+0  29074-3 0  9994",
        "tle_line2": "2 30858  98.7980  52.4984 0030638  87.0715  90.4746 14.17792665970966"
      },
      "geometry": {
        "type": "Point",
        "coordinates": [
          24.734493535388513,
          72.0250400821283
        ]
      }
    },
    {
      "type": "Feature",
      "properties": {
        "norad_id": 30859,
        "name": "FENGYUN 1C DEB",
        "group": "fengyun-1c-debris",
        "lat": 78.7983693002612,
        "lon": -6.149903037005944,
        "alt_km": 717.1723342796222,
        "timestamp": "2025-12-21T16:47:55.017429+00:00",
        "meta_object_name": "FENGYUN 1C DEB",
        "meta_object_id": "1999-025AWV",
        "meta_epoch": "2025-12-21T09:47:23.152704",
        "meta_mean_motion": 14.49220142,
        "meta_eccentricity": 0.0030699,
        "meta_inclination": 98.9209,
        "meta_ra_of_asc_node": 46.0228,
        "meta_arg_of_pericenter": 3.5298,
        "meta_mean_anomaly": 356.6105,
        "meta_ephemeris_type": 0,
        "meta_classification_type": "U",
        "meta_norad_cat_id": 30859,
        "meta_element_set_no": 999,
        "meta_rev_at_epoch": 97160,
        "meta_bstar": 0.0019482,
        "meta_mean_motion_dot": 7.423e-05,
        "meta_mean_motion_ddot": 0,
        "tle_line1": "1 30859U 99025AWV 25355.40790686  .00007423  00000+0  19482-2 0  9991",
        "tle_line2": "2 30859  98.9209  46.0228 0030699   3.5298 356.6105 14.49220142971608"
      },
      "geometry": {
        "type": "Point",
        "coordinates": [
          -6.149903037005944,
          78.7983693002612
        ]
      }
    }
  ]
}